GPS BIIR-2  (PRN 13)    
1 24876U 97035A   26073.47148647  .00000046  00000+0  00000+0 0  9998
2 24876  55.9413 102.2771 0098216  56.2098 304.7946  2.00564034210057
GPS BIIR-5  (PRN 22)    
1 26407U 00040A   26073.57209731  .00000018  00000+0  00000+0 0  9992
2 26407  54.8730 218.9181 0122468 302.5344  64.4987  2.00569037188054
GPS BIIR-8  (PRN 16)    
1 27663U 03005A   26073.94757379  .00000016  00000+0  00000+0 0  9996
2 27663  54.9048 218.7109 0148677  52.7920   1.1555  2.00565678169420
GPS BIIR-11 (PRN 19)    
1 28190U 04009A   26073.37918436  .00000028  00000+0  00000+0 0  9990
2 28190  54.9080 279.5164 0111434 169.3433 349.7979  2.00557837161042
GPS BIIR-13 (PRN 02)    
1 28474U 04045A   26073.79611457 -.00000062  00000+0  00000+0 0  9993
2 28474  55.1887 328.7004 0170687 313.2377 210.9067  2.00573977156535
GPS BIIRM-1 (PRN 17)    
1 28874U 05038A   26073.40553155  .00000032  00000+0  00000+0 0  9994
2 28874  54.9554 277.0011 0128541 295.4769 267.0042  2.00572369149935
INMARSAT 4-F2 (SOUTHPA*)
1 28899U 05044A   26073.81726406 -.00000257  00000+0  00000+0 0  9994
2 28899   4.9700  43.7893 0002762 343.0106 223.3357  1.00276549 74578
GPS BIIRM-2 (PRN 31)    
1 29486U 06042A   26072.28729631 -.00000014  00000+0  00000+0 0  9990
2 29486  54.6981 155.1475 0106583  52.9845 319.1322  2.00575008142474
GPS BIIRM-3 (PRN 12)    
1 29601U 06052A   26070.69292581  .00000033  00000+0  00000+0 0  9992
2 29601  54.9554 217.8682 0087716  89.5016 271.4739  2.00552224141454
GPS BIIRM-4 (PRN 15)    
1 32260U 07047A   26072.99372292  .00000030  00000+0  00000+0 0  9992
2 32260  54.0235  83.9876 0163687  86.0468 275.8750  2.00560318134904
COSMOS 2433 (720)       
1 32275U 07052A   26073.12561684 -.00000027  00000+0  00000+0 0  9992
2 32275  65.6294 319.1347 0001633 271.6855  88.3568  2.13104275143032
COSMOS 2432 (719)       
1 32276U 07052B   26073.37678159 -.00000026  00000+0  00000+0 0  9995
2 32276  65.6451 319.2522 0010390 332.5388 164.3883  2.13103436143068
GPS BIIRM-5 (PRN 29)    
1 32384U 07062A   26072.05935947  .00000029  00000+0  00000+0 0  9993
2 32384  55.1084 278.0153 0033186 160.7725  12.4048  2.00554193133588
COSMOS 2434 (721)       
1 32393U 07065A   26073.73546319  .00000001  00000+0  00000+0 0  9993
2 32393  64.3180 195.0989 0003351  68.6054 289.5556  2.13101414141751
COSMOS 2436 (723)       
1 32395U 07065C   26070.45881969  .00000016  00000+0  00000+0 0  9990
2 32395  64.3265 195.2806 0017388   6.1321 131.0155  2.13100266141644
GPS BIIRM-6 (PRN 07)    
1 32711U 08012A   26072.41300988 -.00000012  00000+0  00000+0 0  9997
2 32711  54.4828 153.7522 0207507 246.3415 111.5080  2.00569600131838
GPS BIIRM-8 (PRN 05)    
1 35752U 09043A   26073.13959634 -.00000054  00000+0  00000+0 0  9994
2 35752  56.1545  31.1853 0051913  80.7257  99.4378  2.00559870121458
